ONEWEB-0046             
1 45447U 20020Z   23059.03530437 -.00000335  00000+0 -98032-3 0  9999
2 45447  87.8798 260.4966 0001625  87.6607 272.4706 13.11415367144665
ONEWEB-0046             
1 45447U 20020Z   23059.56938276 -.00000205  00000+0 -61555-3 0  9996
2 45447  87.8797 260.3905 0001649  86.7733 273.3584 13.11415279144725
ONEWEB-0046             
1 45447U 20020Z   23059.79827353 -.00000158  00000+0 -48194-3 0  9995
2 45447  87.8798 260.3449 0001660  86.9309 273.2009 13.11415324144758
ONEWEB-0046             
1 45447U 20020Z   23060.10346171 -.00000129  00000+0 -39911-3 0  9991
2 45447  87.8798 260.2840 0001640  86.6583 273.4733 13.11415057144806
ONEWEB-0046             
1 45447U 20020Z   23060.79013410  .00000047  00000+0  96637-4 0  9999
2 45447  87.8799 260.1469 0001645  86.8514 273.2802 13.11415459144883
ONEWEB-0046             
1 45447U 20020Z   23061.78199534  .00000169  00000+0  44097-3 0  9998
2 45447  87.8799 259.9489 0001609  86.8069 273.3243 13.11415358145010
ONEWEB-0046             
1 45447U 20020Z   23061.78199534  .00000169  00000+0  44097-3 0  9998
2 45447  87.8799 259.9489 0001609  86.8069 273.3243 13.11415358145021
ONEWEB-0046             
1 45447U 20020Z   23062.46866769  .00000395  00000+0  10785-2 0  9992
2 45447  87.8798 259.8117 0001610  86.6192 273.5120 13.11415687145104
ONEWEB-0046             
1 45447U 20020Z   23062.77385548  .00000407  00000+0  11127-2 0  9992
2 45447  87.8799 259.7508 0001611  86.6834 273.4479 13.11415855145149
